[{"OBJECT_NAME":"STARLINK-5296","OBJECT_ID":"2023-010AV","EPOCH":"2026-03-09T22:54:44.488512","MEAN_MOTION":14.98326482,"ECCENTRICITY":0.00026596,"INCLINATION":70.0011,"RA_OF_ASC_NODE":3.6083,"ARG_OF_PERICENTER":266.2756,"MEAN_ANOMALY":93.8099,"EPHEMERIS_TYPE":0,"CLASSIFICATION_TYPE":"U","NORAD_CAT_ID":55312,"ELEMENT_SET_NO":999,"REV_AT_EPOCH":17467,"BSTAR":-3.5215654e-5,"MEAN_MOTION_DOT":-5.13e-6,"MEAN_MOTION_DDOT":0},{"OBJECT_NAME":"CZ-6A DEB","OBJECT_ID":"2022-151CZ","EPOCH":"2026-03-09T17:45:53.210880","MEAN_MOTION":14.74921147,"ECCENTRICITY":0.01056164,"INCLINATION":98.7155,"RA_OF_ASC_NODE":150.3002,"ARG_OF_PERICENTER":236.2203,"MEAN_ANOMALY":122.891,"EPHEMERIS_TYPE":0,"CLASSIFICATION_TYPE":"U","NORAD_CAT_ID":54354,"ELEMENT_SET_NO":999,"REV_AT_EPOCH":17564,"BSTAR":0.0025923668,"MEAN_MOTION_DOT":0.00019034,"MEAN_MOTION_DDOT":0}]
